41917,IRIDIUM 106,2017,100.4,860.0,+,86.39,Active,1,LEO,USA,USA,Commercial/Government,Communications,Falcon,1 41917U 17003A   24327.62155291  .00000300  00000+0  99958-4 0  9998,2 41917  86.3950 327.3872 0002160  81.4051 278.7390 14.34218737411287,14.34218737,0.000216,LEO
41918,IRIDIUM 103,2017,100.4,860.0,+,86.39,Active,1,LEO,USA,USA,Commercial/Government,Communications,Falcon,1 41918U 17003B   24327.46933169  .00000188  00000+0  60202-4 0  9993,2 41918  86.3954 327.3518 0002937  82.5120 277.6409 14.34217514411292,14.34217514,0.0002937,LEO
41919,IRIDIUM 109,2017,100.4,860.0,+,86.4,Active,1,LEO,USA,USA,Commercial/Government,Communications,Falcon,1 41919U 17003C   24327.54544991  .00000312  00000+0  10443-3 0  9994,2 41919  86.3952 327.3705 0002473  94.2929 265.8549 14.34220935411263,14.34220935,0.0002473,LEO
41920,IRIDIUM 102,2017,100.4,860.0,+,86.39,Active,1,LEO,USA,USA,Commercial/Government,Communications,Falcon,1 41920U 17003D   24327.37418875  .00000153  00000+0  47713-4 0  9992,2 41920  86.3949 327.3777 0002208  92.3100 267.8348 14.34217788411324,14.34217788,0.0002208,LEO
41921,IRIDIUM 105,2017,100.4,860.0,+,86.39,Active,1,LEO,USA,USA,Commercial/Government,Communications,Falcon,1 41921U 17003E   24327.34493402  .00000714  00000+0  24772-3 0  9991,2 41921  86.3935 295.8087 0002324  81.6934 278.4526 14.34218861413172,14.34218861,0.0002324,LEO
41922,IRIDIUM 104,2017,100.4,860.0,+,86.4,Active,1,LEO,USA,USA,Commercial/Government,Communications,Falcon,1 41922U 17003F   24327.52641758  .00000325  00000+0  10907-3 0  9994,2 41922  86.3950 327.3479 0002796  98.3140 261.8373 14.34219445411334,14.34219445,0.0002796,LEO
41923,IRIDIUM 114,2017,100.4,860.0,+,86.39,Active,1,LEO,USA,USA,Commercial/Government,Communications,Falcon,1 41923U 17003G   24327.46298645  .00000333  00000+0  11180-3 0  9994,2 41923  86.3950 327.3599 0002447  87.3513 272.7963 14.34217734411305,14.34217734,0.0002447,LEO
41924,IRIDIUM 108,2017,100.4,860.0,+,86.39,Active,1,LEO,USA,USA,Commercial/Government,Communications,Falcon,1 41924U 17003H   24327.35173948  .00000550  00000+0  18928-3 0  9999,2 41924  86.3925 295.7205 0002035  78.9342 281.2082 14.34218187413143,14.34218187,0.0002035,LEO
